Target1
1 00001U 20001  A 20061.00000000  .00000000  00000-0  00000-0 0    07
2 00001   0.0000 280.0000 0000000   0.0000 000.0000  1.00273791    15
Target2
1 00002U 20001  A 20061.00000000  .00000000  00000-0  00000-0 0    08
2 00002   0.0000 260.0000 0000000   0.0000 000.0000  1.00273791    16
Target3
1 00003U 20001  A 20061.00000000  .00000000  00000-0  00000-0 0    09
2 00003   0.0000 240.0000 0000000   0.0000 000.0000  1.00273791    10
Target4
1 00004U 20001  A 20061.00000000  .00000000  00000-0  00000-0 0    00
2 00004   0.0000 220.0000 0000000   0.0000 000.0000  1.00273791    13
Target5
1 00005U 20001  A 20061.00000000  .00000000  00000-0  00000-0 0    01
2 00005   0.0000 200.0000 0000000   0.0000 000.0000  1.00273791    12
Target6
1 00006U 20001  A 20061.00000000  .00000000  00000-0  00000-0 0    02
2 00006   0.0000 180.0000 0000000   0.0000 000.0000  1.00273791    15
Traveler1
1 99901U 20001  A 20061.00000000  .00000000  00000-0  00000-0 0    05
2 99901  0.0000  282.0000 0000000   0.0000 000.0000  1.00273791    15